{
  "type": "FeatureCollection",
  "features": [
    {
      "type": "Feature",
      "properties": {
        "norad_id": 40794,
        "name": "COSMOS 2251 DEB",
        "group": "cosmos-2251-debris",
        "lat": 68.63906182544484,
        "lon": 153.44346891479844,
        "alt_km": 585.8866095365001,
        "timestamp": "2025-12-21T16:47:55.137311+00:00",
        "meta_object_name": "COSMOS 2251 DEB",
        "meta_object_id": "1993-036BVX",
        "meta_epoch": "2025-12-13T15:37:41.141568",
        "meta_mean_motion": 14.93159868,
        "meta_eccentricity": 0.00107848,
        "meta_inclination": 73.9763,
        "meta_ra_of_asc_node": 122.399,
        "meta_arg_of_pericenter": 261.0962,
        "meta_mean_anomaly": 116.104,
        "meta_ephemeris_type": 0,
        "meta_classification_type": "U",
        "meta_norad_cat_id": 40794,
        "meta_element_set_no": 999,
        "meta_rev_at_epoch": 61938,
        "meta_bstar": 0.0047306735,
        "meta_mean_motion_dot": 0.00049759,
        "meta_mean_motion_ddot": 0,
        "tle_line1": "1 40794U 93036BVX 25347.65117062  .00049759  00000+0  47307-2 0  9990",
        "tle_line2": "2 40794  73.9763 122.3990 0010784 261.0962 116.1040 14.93159868619387"
      },
      "geometry": {
        "type": "Point",
        "coordinates": [
          153.44346891479844,
          68.63906182544484
        ]
      }
    },
    {
      "type": "Feature",
      "properties": {
        "norad_id": 40796,
        "name": "COSMOS 2251 DEB",
        "group": "cosmos-2251-debris",
        "lat": 72.62264735518488,
        "lon": -121.90618990281646,
        "alt_km": 653.6850090283579,
        "timestamp": "2025-12-21T16:47:55.137321+00:00",
        "meta_object_name": "COSMOS 2251 DEB",
        "meta_object_id": "1993-036BVZ",
        "meta_epoch": "2025-12-18T03:16:26.396832",
        "meta_mean_motion": 14.81774084,
        "meta_eccentricity": 0.00561198,
        "meta_inclination": 74.0119,
        "meta_ra_of_asc_node": 131.5134,
        "meta_arg_of_pericenter": 267.2185,
        "meta_mean_anomaly": 268.2913,
        "meta_ephemeris_type": 0,
        "meta_classification_type": "U",
        "meta_norad_cat_id": 40796,
        "meta_element_set_no": 999,
        "meta_rev_at_epoch": 76238,
        "meta_bstar": 0.00073722049,
        "meta_mean_motion_dot": 5.947e-05,
        "meta_mean_motion_ddot": 0,
        "tle_line1": "1 40796U 93036BVZ 25352.13641663  .00005947  00000+0  73722-3 0  9992",
        "tle_line2": "2 40796  74.0119 131.5134 0056119 267.2185 268.2913 14.81774084762382"
      },
      "geometry": {
        "type": "Point",
        "coordinates": [
          -121.90618990281646,
          72.62264735518488
        ]
      }
    },
    {
      "type": "Feature",
      "properties": {
        "norad_id": 40797,
        "name": "COSMOS 2251 DEB",
        "group": "cosmos-2251-debris",
        "lat": 40.0734879255167,
        "lon": 90.68229392476664,
        "alt_km": 500.0137702546017,
        "timestamp": "2025-12-21T16:47:55.137331+00:00",
        "meta_object_name": "COSMOS 2251 DEB",
        "meta_object_id": "1993-036BWA",
        "meta_epoch": "2025-12-19T23:18:49.497408",
        "meta_mean_motion": 15.11460635,
        "meta_eccentricity": 0.0072123,
        "meta_inclination": 73.9226,
        "meta_ra_of_asc_node": 80.2397,
        "meta_arg_of_pericenter": 350.3044,
        "meta_mean_anomaly": 9.675,
        "meta_ephemeris_type": 0,
        "meta_classification_type": "U",
        "meta_norad_cat_id": 40797,
        "meta_element_set_no": 999,
        "meta_rev_at_epoch": 64753,
        "meta_bstar": 0.0004453,
        "meta_mean_motion_dot": 7.981e-05,
        "meta_mean_motion_ddot": 0,
        "tle_line1": "1 40797U 93036BWA 25353.97140622  .00007981  00000+0  44530-3 0  9990",
        "tle_line2": "2 40797  73.9226  80.2397 0072123 350.3044   9.6750 15.11460635647535"
      },
      "geometry": {
        "type": "Point",
        "coordinates": [
          90.68229392476664,
          40.0734879255167
        ]
      }
    },
    {
      "type": "Feature",
      "properties": {
        "norad_id": 40799,
        "name": "COSMOS 2251 DEB",
        "group": "cosmos-2251-debris",
        "lat": -61.712324626762125,
        "lon": 47.72465269706726,
        "alt_km": 509.25062979623544,
        "timestamp": "2025-12-21T16:47:55.137341+00:00",
        "meta_object_name": "COSMOS 2251 DEB",
        "meta_object_id": "1993-036BWC",
        "meta_epoch": "2025-12-21T12:16:32.969280",
        "meta_mean_motion": 14.96732906,
        "meta_eccentricity": 0.0119415,
        "meta_inclination": 73.9265,
        "meta_ra_of_asc_node": 80.504,
        "meta_arg_of_pericenter": 320.5268,
        "meta_mean_anomaly": 38.7259,
        "meta_ephemeris_type": 0,
        "meta_classification_type": "U",
        "meta_norad_cat_id": 40799,
        "meta_element_set_no": 999,
        "meta_rev_at_epoch": 50108,
        "meta_bstar": 0.00030092,
        "meta_mean_motion_dot": 3.932e-05,
        "meta_mean_motion_ddot": 0,
        "tle_line1": "1 40799U 93036BWC 25355.51149270  .00003932  00000+0  30092-3 0  9992",
        "tle_line2": "2 40799  73.9265  80.5040 0119415 320.5268  38.7259 14.96732906501082"
      },
      "geometry": {
        "type": "Point",
        "coordinates": [
          47.72465269706726,
          -61.712324626762125
        ]
      }
    },
    {
      "type": "Feature",
      "properties": {
        "norad_id": 40802,
        "name": "COSMOS 2251 DEB",
        "group": "cosmos-2251-debris",
        "lat": 73.70116448197204,
        "lon": -146.40789123334847,
        "alt_km": 665.5563312971299,
        "timestamp": "2025-12-21T16:47:55.137351+00:00",
        "meta_object_name": "COSMOS 2251 DEB",
        "meta_object_id": "1993-036BWF",
        "meta_epoch": "2025-12-20T16:01:50.950848",
        "meta_mean_motion": 14.77686845,
        "meta_eccentricity": 0.00629069,
        "meta_inclination": 74.0403,
        "meta_ra_of_asc_node": 137.4571,
        "meta_arg_of_pericenter": 234.6618,
        "meta_mean_anomaly": 124.8667,
        "meta_ephemeris_type": 0,
        "meta_classification_type": "U",
        "meta_norad_cat_id": 40802,
        "meta_element_set_no": 999,
        "meta_rev_at_epoch": 64526,
        "meta_bstar": 0.0005156342,
        "meta_mean_motion_dot": 3.783e-05,
        "meta_mean_motion_ddot": 0,
        "tle_line1": "1 40802U 93036BWF 25354.66795082  .00003783  00000+0  51563-3 0  9990",
        "tle_line2": "2 40802  74.0403 137.4571 0062906 234.6618 124.8667 14.77686845645268"
      },
      "geometry": {
        "type": "Point",
        "coordinates": [
          -146.40789123334847,
          73.70116448197204
        ]
      }
    },
    {
      "type": "Feature",
      "properties": {
        "norad_id": 40803,
        "name": "COSMOS 2251 DEB",
        "group": "cosmos-2251-debris",
        "lat": 3.3298091163146153,
        "lon": -145.9544346931684,
        "alt_km": 714.9626150097347,
        "timestamp": "2025-12-21T16:47:55.137361+00:00",
        "meta_object_name": "COSMOS 2251 DEB",
        "meta_object_id": "1993-036BWG",
        "meta_epoch": "2025-12-21T09:22:13.075968",
        "meta_mean_motion": 14.51837554,
        "meta_eccentricity": 0.0034374,
        "meta_inclination": 74.0142,
        "meta_ra_of_asc_node": 35.5847,
        "meta_arg_of_pericenter": 250.91,
        "meta_mean_anomaly": 108.8338,
        "meta_ephemeris_type": 0,
        "meta_classification_type": "U",
        "meta_norad_cat_id": 40803,
        "meta_element_set_no": 999,
        "meta_rev_at_epoch": 58878,
        "meta_bstar": 0.00023374,
        "meta_mean_motion_dot": 9.19e-06,
        "meta_mean_motion_ddot": 0,
        "tle_line1": "1 40803U 93036BWG 25355.39042912  .00000919  00000+0  23374-3 0  9996",
        "tle_line2": "2 40803  74.0142  35.5847 0034374 250.9100 108.8338 14.51837554588785"
      },
      "geometry": {
        "type": "Point",
        "coordinates": [
          -145.9544346931684,
          3.3298091163146153
        ]
      }
    },
    {
      "type": "Feature",
      "properties": {
        "norad_id": 40808,
        "name": "COSMOS 2251 DEB",
        "group": "cosmos-2251-debris",
        "lat": -55.25864195538604,
        "lon": -27.458380320877687,
        "alt_km": 673.8259285910863,
        "timestamp": "2025-12-21T16:47:55.137372+00:00",
        "meta_object_name": "COSMOS 2251 DEB",
        "meta_object_id": "1993-036BWM",
        "meta_epoch": "2025-12-21T03:26:49.540416",
        "meta_mean_motion": 14.67611065,
        "meta_eccentricity": 0.00084634,
        "meta_inclination": 74.0421,
        "meta_ra_of_asc_node": 129.2468,
        "meta_arg_of_pericenter": 164.8928,
        "meta_mean_anomaly": 15.6527,
        "meta_ephemeris_type": 0,
        "meta_classification_type": "U",
        "meta_norad_cat_id": 40808,
        "meta_element_set_no": 999,
        "meta_rev_at_epoch": 63742,
        "meta_bstar": 0.0010661972,
        "meta_mean_motion_dot": 6.035e-05,
        "meta_mean_motion_ddot": 0,
        "tle_line1": "1 40808U 93036BWM 25355.14362894  .00006035  00000+0  10662-2 0  9998",
        "tle_line2": "2 40808  74.0421 129.2468 0008463 164.8928  15.6527 14.67611065637426"
      },
      "geometry": {
        "type": "Point",
        "coordinates": [
          -27.458380320877687,
          -55.25864195538604
        ]
      }
    }
  ]
}